[
    {
        "Altitude(m)": 553533.2046172092,
        "Argument of Periapsis(deg)": 0.019868973332140504,
        "Eccentricity": 0.0,
        "Inclination(deg)": 53.0,
        "Latitude(deg)": 15.387801552255967,
        "Longitude(deg)": -165.47733299102998,
        "Mean Anomaly(deg)": 19.365778602732785,
        "RAAN(deg)": 284.97043010558406,
        "Satellite Name": "Starlink Shell 1 1275",
        "Satellite Number": 1275,
        "Semi-Major Axis(m)": 6931778.249405717,
        "Time(s)": 570
    },
    {
        "Altitude(m)": 553552.3960622897,
        "Argument of Periapsis(deg)": 0.02021755181165174,
        "Eccentricity": 0.0,
        "Inclination(deg)": 53.0,
        "Latitude(deg)": 15.88036316451824,
        "Longitude(deg)": -165.1125249209937,
        "Mean Anomaly(deg)": 19.99260980628948,
        "RAAN(deg)": 284.96991133550654,
        "Satellite Name": "Starlink Shell 1 1275",
        "Satellite Number": 1275,
        "Semi-Major Axis(m)": 6931778.249405717,
        "Time(s)": 580
    },
    {
        "Altitude(m)": 553573.977735503,
        "Argument of Periapsis(deg)": 0.020566130291162974,
        "Eccentricity": 0.0,
        "Inclination(deg)": 53.0,
        "Latitude(deg)": 16.37214009946435,
        "Longitude(deg)": -164.7457383721466,
        "Mean Anomaly(deg)": 20.619441009846128,
        "RAAN(deg)": 284.96939256542913,
        "Satellite Name": "Starlink Shell 1 1275",
        "Satellite Number": 1275,
        "Semi-Major Axis(m)": 6931778.249405717,
        "Time(s)": 590
    },
    {
        "Altitude(m)": 553597.9169886751,
        "Argument of Periapsis(deg)": 0.020914708770674213,
        "Eccentricity": 0.0,
        "Inclination(deg)": 53.0,
        "Latitude(deg)": 16.863102739900597,
        "Longitude(deg)": -164.3769022244521,
        "Mean Anomaly(deg)": 21.24627221340287,
        "RAAN(deg)": 284.9688737953516,
        "Satellite Name": "Starlink Shell 1 1275",
        "Satellite Number": 1275,
        "Semi-Major Axis(m)": 6931778.249405717,
        "Time(s)": 600
    },
    {
        "Altitude(m)": 553624.1801270741,
        "Argument of Periapsis(deg)": 0.021263287250185448,
        "Eccentricity": 0.0,
        "Inclination(deg)": 53.0,
        "Latitude(deg)": 17.353221013522482,
        "Longitude(deg)": -164.00594449527304,
        "Mean Anomaly(deg)": 21.873103416959566,
        "RAAN(deg)": 284.9683550252741,
        "Satellite Name": "Starlink Shell 1 1275",
        "Satellite Number": 1275,
        "Semi-Major Axis(m)": 6931778.249405717,
        "Time(s)": 610
    },
    {
        "Altitude(m)": 553652.7324287492,
        "Argument of Periapsis(deg)": 0.021611865729696686,
        "Eccentricity": 0.0,
        "Inclination(deg)": 53.0,
        "Latitude(deg)": 17.842464374683924,
        "Longitude(deg)": -163.63279180838563,
        "Mean Anomaly(deg)": 22.499934620516264,
        "RAAN(deg)": 284.9678362551967,
        "Satellite Name": "Starlink Shell 1 1275",
        "Satellite Number": 1275,
        "Semi-Major Axis(m)": 6931778.249405717,
        "Time(s)": 620
    },
    {
        "Altitude(m)": 553683.5381643487,
        "Argument of Periapsis(deg)": 0.02196044420920792,
        "Eccentricity": 0.0,
        "Inclination(deg)": 53.0,
        "Latitude(deg)": 18.33080178576159,
        "Longitude(deg)": -163.25737054411536,
        "Mean Anomaly(deg)": 23.126765824072955,
        "RAAN(deg)": 284.9673174851192,
        "Satellite Name": "Starlink Shell 1 1275",
        "Satellite Number": 1275,
        "Semi-Major Axis(m)": 6931778.249405717,
        "Time(s)": 630
    },
    {
        "Altitude(m)": 553716.5606174446,
        "Argument of Periapsis(deg)": 0.02230902268871916,
        "Eccentricity": 0.0,
        "Inclination(deg)": 53.0,
        "Latitude(deg)": 18.818201698097027,
        "Longitude(deg)": -162.8796054682063,
        "Mean Anomaly(deg)": 23.753597027629755,
        "RAAN(deg)": 284.9667987150417,
        "Satellite Name": "Starlink Shell 1 1275",
        "Satellite Number": 1275,
        "Semi-Major Axis(m)": 6931778.249405717,
        "Time(s)": 640
    },
    {
        "Altitude(m)": 553751.762105294,
        "Argument of Periapsis(deg)": 0.022657601168230398,
        "Eccentricity": 0.0,
        "Inclination(deg)": 53.0,
        "Latitude(deg)": 19.304632032512103,
        "Longitude(deg)": -162.49942088238097,
        "Mean Anomaly(deg)": 24.380428231186453,
        "RAAN(deg)": 284.9662799449643,
        "Satellite Name": "Starlink Shell 1 1275",
        "Satellite Number": 1275,
        "Semi-Major Axis(m)": 6931778.249405717,
        "Time(s)": 650
    },
    {
        "Altitude(m)": 553789.1040000833,
        "Argument of Periapsis(deg)": 0.023006179647741636,
        "Eccentricity": 0.0,
        "Inclination(deg)": 53.0,
        "Latitude(deg)": 19.790060159380534,
        "Longitude(deg)": -162.1167400942091,
        "Mean Anomaly(deg)": 25.007259434743144,
        "RAAN(deg)": 284.9657611748868,
        "Satellite Name": "Starlink Shell 1 1275",
        "Satellite Number": 1275,
        "Semi-Major Axis(m)": 6931778.249405717,
        "Time(s)": 660
    },
    {
        "Altitude(m)": 553828.5467505917,
        "Argument of Periapsis(deg)": 0.023354758127252868,
        "Eccentricity": 0.0,
        "Inclination(deg)": 53.0,
        "Latitude(deg)": 20.274452878246073,
        "Longitude(deg)": -161.73148488731073,
        "Mean Anomaly(deg)": 25.634090638299895,
        "RAAN(deg)": 284.9652424048093,
        "Satellite Name": "Starlink Shell 1 1275",
        "Satellite Number": 1275,
        "Semi-Major Axis(m)": 6931778.249405717,
        "Time(s)": 670
    },
    {
        "Altitude(m)": 553870.0499043227,
        "Argument of Periapsis(deg)": 0.023703336606764106,
        "Eccentricity": 0.0,
        "Inclination(deg)": 53.0,
        "Latitude(deg)": 20.75777639697966,
        "Longitude(deg)": -161.34357650482295,
        "Mean Anomaly(deg)": 26.260921841856643,
        "RAAN(deg)": 284.96472363473185,
        "Satellite Name": "Starlink Shell 1 1275",
        "Satellite Number": 1275,
        "Semi-Major Axis(m)": 6931778.249405717,
        "Time(s)": 680
    },
    {
        "Altitude(m)": 553913.5721300028,
        "Argument of Periapsis(deg)": 0.024051915086275345,
        "Eccentricity": 0.0,
        "Inclination(deg)": 53.0,
        "Latitude(deg)": 21.239996310460626,
        "Longitude(deg)": -160.95293512044762,
        "Mean Anomaly(deg)": 26.887753045413334,
        "RAAN(deg)": 284.96420486465433,
        "Satellite Name": "Starlink Shell 1 1275",
        "Satellite Number": 1275,
        "Semi-Major Axis(m)": 6931778.249405717,
        "Time(s)": 690
    },
    {
        "Altitude(m)": 553959.0712405477,
        "Argument of Periapsis(deg)": 0.024400493565786583,
        "Eccentricity": 0.0,
        "Inclination(deg)": 53.0,
        "Latitude(deg)": 21.72107757877396,
        "Longitude(deg)": -160.55947931002092,
        "Mean Anomaly(deg)": 27.51458424896998,
        "RAAN(deg)": 284.9636860945769,
        "Satellite Name": "Starlink Shell 1 1275",
        "Satellite Number": 1275,
        "Semi-Major Axis(m)": 6931778.249405717,
        "Time(s)": 700
    },
    {
        "Altitude(m)": 554006.5042163893,
        "Argument of Periapsis(deg)": 0.024749072045297815,
        "Eccentricity": 0.0,
        "Inclination(deg)": 53.0,
        "Latitude(deg)": 22.200984504917592,
        "Longitude(deg)": -160.16312703655495,
        "Mean Anomaly(deg)": 28.141415452526726,
        "RAAN(deg)": 284.96316732449947,
        "Satellite Name": "Starlink Shell 1 1275",
        "Satellite Number": 1275,
        "Semi-Major Axis(m)": 6931778.249405717,
        "Time(s)": 710
    },
    {
        "Altitude(m)": 554055.8272291808,
        "Argument of Periapsis(deg)": 0.025097650524809053,
        "Eccentricity": 0.0,
        "Inclination(deg)": 53.0,
        "Latitude(deg)": 22.679680712006117,
        "Longitude(deg)": -159.76379512308492,
        "Mean Anomaly(deg)": 28.768246656083473,
        "RAAN(deg)": 284.96264855442195,
        "Satellite Name": "Starlink Shell 1 1275",
        "Satellite Number": 1275,
        "Semi-Major Axis(m)": 6931778.249405717,
        "Time(s)": 720
    },
    {
        "Altitude(m)": 554106.9956658985,
        "Argument of Periapsis(deg)": 0.02544622900432029,
        "Eccentricity": 0.0,
        "Inclination(deg)": 53.0,
        "Latitude(deg)": 23.15712911996541,
        "Longitude(deg)": -159.3613987262851,
        "Mean Anomaly(deg)": 29.39507785964017,
        "RAAN(deg)": 284.9621297843444,
        "Satellite Name": "Starlink Shell 1 1275",
        "Satellite Number": 1275,
        "Semi-Major Axis(m)": 6931778.249405717,
        "Time(s)": 730
    },
    {
        "Altitude(m)": 554159.9641532829,
        "Argument of Periapsis(deg)": 0.02579480748383153,
        "Eccentricity": 0.0,
        "Inclination(deg)": 53.0,
        "Latitude(deg)": 23.633291921715145,
        "Longitude(deg)": -158.95585232382237,
        "Mean Anomaly(deg)": 30.021909063196816,
        "RAAN(deg)": 284.961611014267,
        "Satellite Name": "Starlink Shell 1 1275",
        "Satellite Number": 1275,
        "Semi-Major Axis(m)": 6931778.249405717,
        "Time(s)": 740
    },
    {
        "Altitude(m)": 554214.6865826243,
        "Argument of Periapsis(deg)": 0.026143385963342765,
        "Eccentricity": 0.0,
        "Inclination(deg)": 53.0,
        "Latitude(deg)": 24.108130558826957,
        "Longitude(deg)": -158.5470691898065,
        "Mean Anomaly(deg)": 30.648740266753663,
        "RAAN(deg)": 284.96109224418956,
        "Satellite Name": "Starlink Shell 1 1275",
        "Satellite Number": 1275,
        "Semi-Major Axis(m)": 6931778.249405717,
        "Time(s)": 750
    }
]